{"fetched_at":"2026-07-13T18:16:41.644Z","source":"https://celestrak.org/NORAD/elements/gp.php?GROUP=stations&FORMAT=JSON","constellation":"tiangong","records":[{"OBJECT_NAME":"CSS (TIANHE)","OBJECT_ID":"2021-035A","EPOCH":"2026-07-12T07:55:55.916256","CLASSIFICATION_TYPE":"U","MEAN_MOTION":15.58035041,"ECCENTRICITY":0.00024282,"INCLINATION":41.4686,"RA_OF_ASC_NODE":169.1964,"ARG_OF_PERICENTER":290.9815,"MEAN_ANOMALY":69.0763,"EPHEMERIS_TYPE":0,"NORAD_CAT_ID":48274,"ELEMENT_SET_NO":999,"REV_AT_EPOCH":29709,"BSTAR":0.000014700842,"MEAN_MOTION_DOT":0.00000806,"MEAN_MOTION_DDOT":0}]}
